[
    {
        "Altitude(m)": 562976.3607713437,
        "Argument of Periapsis(deg)": 0.013245982221427002,
        "Eccentricity": 0.0,
        "Inclination(deg)": 53.0,
        "Latitude(deg)": -31.23187186895291,
        "Longitude(deg)": -144.54767784591542,
        "Mean Anomaly(deg)": 220.18318573515512,
        "RAAN(deg)": 109.98028673705603,
        "Satellite Name": "Starlink Shell 1 496",
        "Satellite Number": 496,
        "Semi-Major Axis(m)": 6931778.249405717,
        "Time(s)": 380
    },
    {
        "Altitude(m)": 563151.6692440243,
        "Argument of Periapsis(deg)": 0.013594560700938237,
        "Eccentricity": 0.0,
        "Inclination(deg)": 53.0,
        "Latitude(deg)": -31.677675461365787,
        "Longitude(deg)": -144.07336012801545,
        "Mean Anomaly(deg)": 220.81001693871193,
        "RAAN(deg)": 109.97976796697856,
        "Satellite Name": "Starlink Shell 1 496",
        "Satellite Number": 496,
        "Semi-Major Axis(m)": 6931778.249405717,
        "Time(s)": 390
    },
    {
        "Altitude(m)": 563326.8941151017,
        "Argument of Periapsis(deg)": 0.013943139180449475,
        "Eccentricity": 0.0,
        "Inclination(deg)": 53.0,
        "Latitude(deg)": -32.12133171134915,
        "Longitude(deg)": -143.5941233817339,
        "Mean Anomaly(deg)": 221.43684814226856,
        "RAAN(deg)": 109.97924919690108,
        "Satellite Name": "Starlink Shell 1 496",
        "Satellite Number": 496,
        "Semi-Major Axis(m)": 6931778.249405717,
        "Time(s)": 400
    },
    {
        "Altitude(m)": 563501.9691368168,
        "Argument of Periapsis(deg)": 0.014291717659960712,
        "Eccentricity": 0.0,
        "Inclination(deg)": 53.0,
        "Latitude(deg)": -32.56278394192549,
        "Longitude(deg)": -143.10985777882476,
        "Mean Anomaly(deg)": 222.06367934582534,
        "RAAN(deg)": 109.9787304268236,
        "Satellite Name": "Starlink Shell 1 496",
        "Satellite Number": 496,
        "Semi-Major Axis(m)": 6931778.249405717,
        "Time(s)": 410
    },
    {
        "Altitude(m)": 563676.8279821597,
        "Argument of Periapsis(deg)": 0.014640296139471948,
        "Eccentricity": 0.0,
        "Inclination(deg)": 53.0,
        "Latitude(deg)": -33.00197417545157,
        "Longitude(deg)": -142.62045284551203,
        "Mean Anomaly(deg)": 222.690510549382,
        "RAAN(deg)": 109.97821165674615,
        "Satellite Name": "Starlink Shell 1 496",
        "Satellite Number": 496,
        "Semi-Major Axis(m)": 6931778.249405717,
        "Time(s)": 420
    },
    {
        "Altitude(m)": 563851.4042745396,
        "Argument of Periapsis(deg)": 0.014988874618983185,
        "Eccentricity": 0.0,
        "Inclination(deg)": 53.0,
        "Latitude(deg)": -33.43884310122454,
        "Longitude(deg)": -142.12579699876625,
        "Mean Anomaly(deg)": 223.31734175293872,
        "RAAN(deg)": 109.97769288666868,
        "Satellite Name": "Starlink Shell 1 496",
        "Satellite Number": 496,
        "Semi-Major Axis(m)": 6931778.249405717,
        "Time(s)": 430
    },
    {
        "Altitude(m)": 564025.6316175171,
        "Argument of Periapsis(deg)": 0.015337453098494424,
        "Eccentricity": 0.0,
        "Inclination(deg)": 53.0,
        "Latitude(deg)": -33.873330043051865,
        "Longitude(deg)": -141.6257770887156,
        "Mean Anomaly(deg)": 223.94417295649552,
        "RAAN(deg)": 109.9771741165912,
        "Satellite Name": "Starlink Shell 1 496",
        "Satellite Number": 496,
        "Semi-Major Axis(m)": 6931778.249405717,
        "Time(s)": 440
    },
    {
        "Altitude(m)": 564199.4436244875,
        "Argument of Periapsis(deg)": 0.01568603157800566,
        "Eccentricity": 0.0,
        "Inclination(deg)": 53.0,
        "Latitude(deg)": -34.30537292685937,
        "Longitude(deg)": -141.12027946049517,
        "Mean Anomaly(deg)": 224.57100416005213,
        "RAAN(deg)": 109.97665534651372,
        "Satellite Name": "Starlink Shell 1 496",
        "Satellite Number": 496,
        "Semi-Major Axis(m)": 6931778.249405717,
        "Time(s)": 450
    },
    {
        "Altitude(m)": 564372.7739483789,
        "Argument of Periapsis(deg)": 0.0160346100575169,
        "Eccentricity": 0.0,
        "Inclination(deg)": 53.0,
        "Latitude(deg)": -34.73490824842517,
        "Longitude(deg)": -140.60918951023612,
        "Mean Anomaly(deg)": 225.1978353636089,
        "RAAN(deg)": 109.97613657643625,
        "Satellite Name": "Starlink Shell 1 496",
        "Satellite Number": 496,
        "Semi-Major Axis(m)": 6931778.249405717,
        "Time(s)": 460
    },
    {
        "Altitude(m)": 564545.5563112964,
        "Argument of Periapsis(deg)": 0.016383188537028134,
        "Eccentricity": 0.0,
        "Inclination(deg)": 53.0,
        "Latitude(deg)": -35.161871041328055,
        "Longitude(deg)": -140.0923912485395,
        "Mean Anomaly(deg)": 225.82466656716554,
        "RAAN(deg)": 109.97561780635877,
        "Satellite Name": "Starlink Shell 1 496",
        "Satellite Number": 496,
        "Semi-Major Axis(m)": 6931778.249405717,
        "Time(s)": 470
    },
    {
        "Altitude(m)": 564717.7245341481,
        "Argument of Periapsis(deg)": 0.01673176701653937,
        "Eccentricity": 0.0,
        "Inclination(deg)": 53.0,
        "Latitude(deg)": -35.58619484520962,
        "Longitude(deg)": -139.56976838479628,
        "Mean Anomaly(deg)": 226.4514977707223,
        "RAAN(deg)": 109.97509903628132,
        "Satellite Name": "Starlink Shell 1 496",
        "Satellite Number": 496,
        "Semi-Major Axis(m)": 6931778.249405717,
        "Time(s)": 480
    },
    {
        "Altitude(m)": 564889.2125661721,
        "Argument of Periapsis(deg)": 0.017080345496050607,
        "Eccentricity": 0.0,
        "Inclination(deg)": 53.0,
        "Latitude(deg)": -36.00781167446426,
        "Longitude(deg)": -139.04120390711432,
        "Mean Anomaly(deg)": 227.07832897427903,
        "RAAN(deg)": 109.97458026620384,
        "Satellite Name": "Starlink Shell 1 496",
        "Satellite Number": 496,
        "Semi-Major Axis(m)": 6931778.249405717,
        "Time(s)": 490
    },
    {
        "Altitude(m)": 565059.9545144461,
        "Argument of Periapsis(deg)": 0.017428923975561842,
        "Eccentricity": 0.0,
        "Inclination(deg)": 53.0,
        "Latitude(deg)": -36.4266519874761,
        "Longitude(deg)": -138.50657967125062,
        "Mean Anomaly(deg)": 227.70516017783572,
        "RAAN(deg)": 109.97406149612637,
        "Satellite Name": "Starlink Shell 1 496",
        "Satellite Number": 496,
        "Semi-Major Axis(m)": 6931778.249405717,
        "Time(s)": 500
    },
    {
        "Altitude(m)": 565229.8846732577,
        "Argument of Periapsis(deg)": 0.01777750245507308,
        "Eccentricity": 0.0,
        "Inclination(deg)": 53.0,
        "Latitude(deg)": -36.84264465653093,
        "Longitude(deg)": -137.9657775119652,
        "Mean Anomaly(deg)": 228.3319913813925,
        "RAAN(deg)": 109.97354272604889,
        "Satellite Name": "Starlink Shell 1 496",
        "Satellite Number": 496,
        "Semi-Major Axis(m)": 6931778.249405717,
        "Time(s)": 510
    },
    {
        "Altitude(m)": 565398.9375534159,
        "Argument of Periapsis(deg)": 0.018126080934584315,
        "Eccentricity": 0.0,
        "Inclination(deg)": 53.0,
        "Latitude(deg)": -37.25571693855054,
        "Longitude(deg)": -137.4186788516079,
        "Mean Anomaly(deg)": 228.9588225849491,
        "RAAN(deg)": 109.97302395597141,
        "Satellite Name": "Starlink Shell 1 496",
        "Satellite Number": 496,
        "Semi-Major Axis(m)": 6931778.249405717,
        "Time(s)": 520
    },
    {
        "Altitude(m)": 565567.0479114231,
        "Argument of Periapsis(deg)": 0.018474659414095554,
        "Eccentricity": 0.0,
        "Inclination(deg)": 53.0,
        "Latitude(deg)": -37.66579444680202,
        "Longitude(deg)": -136.86516431937963,
        "Mean Anomaly(deg)": 229.58565378850588,
        "RAAN(deg)": 109.97250518589394,
        "Satellite Name": "Starlink Shell 1 496",
        "Satellite Number": 496,
        "Semi-Major Axis(m)": 6931778.249405717,
        "Time(s)": 530
    },
    {
        "Altitude(m)": 565734.1507785332,
        "Argument of Periapsis(deg)": 0.018823237893606792,
        "Eccentricity": 0.0,
        "Inclination(deg)": 53.0,
        "Latitude(deg)": -38.072801123745464,
        "Longitude(deg)": -136.30511489472903,
        "Mean Anomaly(deg)": 230.21248499206257,
        "RAAN(deg)": 109.97198641581649,
        "Satellite Name": "Starlink Shell 1 496",
        "Satellite Number": 496,
        "Semi-Major Axis(m)": 6931778.249405717,
        "Time(s)": 540
    },
    {
        "Altitude(m)": 565900.1814896825,
        "Argument of Periapsis(deg)": 0.019171816373118027,
        "Eccentricity": 0.0,
        "Inclination(deg)": 53.0,
        "Latitude(deg)": -38.476659215206375,
        "Longitude(deg)": -135.73841154972496,
        "Mean Anomaly(deg)": 230.83931619561932,
        "RAAN(deg)": 109.971467645739,
        "Satellite Name": "Starlink Shell 1 496",
        "Satellite Number": 496,
        "Semi-Major Axis(m)": 6931778.249405717,
        "Time(s)": 550
    },
    {
        "Altitude(m)": 566065.0757122323,
        "Argument of Periapsis(deg)": 0.019520394852629266,
        "Eccentricity": 0.0,
        "Inclination(deg)": 53.0,
        "Latitude(deg)": -38.877289246061956,
        "Longitude(deg)": -135.16493490387793,
        "Mean Anomaly(deg)": 231.46614739917607,
        "RAAN(deg)": 109.97094887566152,
        "Satellite Name": "Starlink Shell 1 496",
        "Satellite Number": 496,
        "Semi-Major Axis(m)": 6931778.249405717,
        "Time(s)": 560
    }
]